start=new Date('2023-03-05T00:00:00.000Z').valueOf();
sats=[{"ECCENTRICITY":"0.00014000","SITE":"AFETR","EPOCH":"2023-03-04T22:00:00.999936","GP_ID":"227512246","COUNTRY_CODE":"US","OBJECT_NAME":"STARLINK-5416","MEAN_ELEMENT_THEORY":"SGP4","TLE_LINE2":"2 54855  43.0022 341.7886 0001400 259.8172 272.8666 15.04496385  1302","REV_AT_EPOCH":"130","CLASSIFICATION_TYPE":"U","INCLINATION":"43.0022","FILE":"3851350","MEAN_MOTION":"15.04496385","RCS_SIZE":"LARGE","ARG_OF_PERICENTER":"259.8172","RA_OF_ASC_NODE":"341.7886","APOAPSIS":"554.024","LAUNCH_DATE":"2022-12-28","MEAN_MOTION_DOT":"-0.00029280","PERIAPSIS":"552.084","TLE_LINE1":"1 54855U 22177AM  23063.91667824 -.00029280  00000-0 -20511-2 0  9997","NORAD_CAT_ID":"54855","MEAN_ANOMALY":"272.8666","PERIOD":"95.713","DECAY_DATE":null,"EPHEMERIS_TYPE":"0","REF_FRAME":"TEME","SEMIMAJOR_AXIS":"6931.189","CENTER_NAME":"EARTH","TIME_SYSTEM":"UTC","OBJECT_TYPE":"PAYLOAD","OBJECT_ID":"2022-177AM","MEAN_MOTION_DDOT":"0.0000000000000","ELEMENT_SET_NO":"999","BSTAR":"-0.00205110000000"},{"OBJECT_TYPE":"PAYLOAD","TIME_SYSTEM":"UTC","SEMIMAJOR_AXIS":"6926.764","CENTER_NAME":"EARTH","REF_FRAME":"TEME","BSTAR":"-0.08836200000000","ELEMENT_SET_NO":"999","MEAN_MOTION_DDOT":"0.0000000000000","OBJECT_ID":"2022-177AN","NORAD_CAT_ID":"54856","PERIAPSIS":"547.845","TLE_LINE1":"1 54856U 22177AN  23063.91667824 -.01197779  00000-0 -88362-1 0  9995","MEAN_MOTION_DOT":"-0.01197779","PERIOD":"95.621","DECAY_DATE":null,"EPHEMERIS_TYPE":"0","MEAN_ANOMALY":"7.5404","RA_OF_ASC_NODE":"341.5604","RCS_SIZE":"LARGE","ARG_OF_PERICENTER":"260.2529","FILE":"3851350","MEAN_MOTION":"15.05938420","LAUNCH_DATE":"2022-12-28","APOAPSIS":"549.412","OBJECT_NAME":"STARLINK-5086","GP_ID":"227511984","COUNTRY_CODE":"US","ECCENTRICITY":"0.00011310","SITE":"AFETR","EPOCH":"2023-03-04T22:00:00.999936","INCLINATION":"43.0015","TLE_LINE2":"2 54856  43.0015 341.5604 0001131 260.2529   7.5404 15.05938420  1309","REV_AT_EPOCH":"130","CLASSIFICATION_TYPE":"U","MEAN_ELEMENT_THEORY":"SGP4"},{"RA_OF_ASC_NODE":"341.8929","RCS_SIZE":"LARGE","ARG_OF_PERICENTER":"254.7981","FILE":"3851350","MEAN_MOTION":"15.04533978","LAUNCH_DATE":"2022-12-28","APOAPSIS":"553.646","OBJECT_NAME":"STARLINK-5078","GP_ID":"227510746","COUNTRY_CODE":"US","SITE":"AFETR","ECCENTRICITY":"0.00010210","EPOCH":"2023-03-04T22:00:00.999936","INCLINATION":"43.0020","TLE_LINE2":"2 54857  43.0020 341.8929 0001021 254.7981 234.4538 15.04533978  1304","REV_AT_EPOCH":"130","CLASSIFICATION_TYPE":"U","MEAN_ELEMENT_THEORY":"SGP4","OBJECT_TYPE":"PAYLOAD","TIME_SYSTEM":"UTC","SEMIMAJOR_AXIS":"6931.074","CENTER_NAME":"EARTH","REF_FRAME":"TEME","BSTAR":"-0.00809840000000","ELEMENT_SET_NO":"999","MEAN_MOTION_DDOT":"0.0000000000000","OBJECT_ID":"2022-177AP","NORAD_CAT_ID":"54857","PERIAPSIS":"552.231","TLE_LINE1":"1 54857U 22177AP  23063.91667824 -.00113745  00000-0 -80984-2 0  9999","MEAN_MOTION_DOT":"-0.00113745","EPHEMERIS_TYPE":"0","DECAY_DATE":null,"PERIOD":"95.711","MEAN_ANOMALY":"234.4538"},{"PERIAPSIS":"550.933","TLE_LINE1":"1 54858U 22177AQ  23063.91667824 -.00550895  00000-0 -40898-1 0  9990","NORAD_CAT_ID":"54858","MEAN_MOTION_DOT":"-0.00550895","MEAN_ANOMALY":"301.5706","DECAY_DATE":null,"PERIOD":"95.689","EPHEMERIS_TYPE":"0","TIME_SYSTEM":"UTC","OBJECT_TYPE":"PAYLOAD","REF_FRAME":"TEME","SEMIMAJOR_AXIS":"6930.009","CENTER_NAME":"EARTH","ELEMENT_SET_NO":"999","BSTAR":"-0.04089800000000","OBJECT_ID":"2022-177AQ","MEAN_MOTION_DDOT":"0.0000000000000","OBJECT_NAME":"STARLINK-5407","ECCENTRICITY":"0.00013580","SITE":"AFETR","EPOCH":"2023-03-04T22:00:00.999936","GP_ID":"227510995","COUNTRY_CODE":"US","REV_AT_EPOCH":"130","TLE_LINE2":"2 54858  43.0022 341.7052 0001358 265.8205 301.5706 15.04880746  1309","CLASSIFICATION_TYPE":"U","INCLINATION":"43.0022","MEAN_ELEMENT_THEORY":"SGP4","RA_OF_ASC_NODE":"341.7052","MEAN_MOTION":"15.04880746","FILE":"3851350","RCS_SIZE":"LARGE","ARG_OF_PERICENTER":"265.8205","APOAPSIS":"552.815","LAUNCH_DATE":"2022-12-28"},{"RA_OF_ASC_NODE":"341.5709","MEAN_MOTION":"15.05898339","FILE":"3851350","RCS_SIZE":"LARGE","ARG_OF_PERICENTER":"253.5643","APOAPSIS":"549.520","LAUNCH_DATE":"2022-12-28","OBJECT_NAME":"STARLINK-5409","SITE":"AFETR","ECCENTRICITY":"0.00011100","EPOCH":"2023-03-04T22:00:00.999936","GP_ID":"227511747","COUNTRY_CODE":"US","REV_AT_EPOCH":"130","TLE_LINE2":"2 54859  43.0012 341.5709 0001110 253.5643   9.9044 15.05898339  1304","CLASSIFICATION_TYPE":"U","INCLINATION":"43.0012","MEAN_ELEMENT_THEORY":"SGP4","TIME_SYSTEM":"UTC","OBJECT_TYPE":"PAYLOAD","REF_FRAME":"TEME","SEMIMAJOR_AXIS":"6926.887","CENTER_NAME":"EARTH","ELEMENT_SET_NO":"999","BSTAR":"-0.08865800000000","OBJECT_ID":"2022-177AR","MEAN_MOTION_DDOT":"0.0000000000000","PERIAPSIS":"547.983","TLE_LINE1":"1 54859U 22177AR  23063.91667824 -.01200257  00000-0 -88658-1 0  9992","NORAD_CAT_ID":"54859","MEAN_MOTION_DOT":"-0.01200257","MEAN_ANOMALY":"9.9044","DECAY_DATE":null,"PERIOD":"95.624","EPHEMERIS_TYPE":"0"},{"MEAN_ELEMENT_THEORY":"SGP4","CLASSIFICATION_TYPE":"U","TLE_LINE2":"2 54860  43.0012 341.5310 0001208 259.5232  20.4709 15.06107441  1306","REV_AT_EPOCH":"130","INCLINATION":"43.0012","EPOCH":"2023-03-04T22:00:00.999936","SITE":"AFETR","ECCENTRICITY":"0.00012080","COUNTRY_CODE":"US","GP_ID":"227512484","OBJECT_NAME":"STARLINK-5406","APOAPSIS":"548.947","LAUNCH_DATE":"2022-12-28","FILE":"3851350","MEAN_MOTION":"15.06107441","ARG_OF_PERICENTER":"259.5232","RCS_SIZE":"LARGE","RA_OF_ASC_NODE":"341.5310","MEAN_ANOMALY":"20.4709","DECAY_DATE":null,"PERIOD":"95.611","EPHEMERIS_TYPE":"0","MEAN_MOTION_DOT":"-0.01196308","PERIAPSIS":"547.274","TLE_LINE1":"1 54860U 22177AS  23063.91667824 -.01196308  00000-0 -87838-1 0  9994","NORAD_CAT_ID":"54860","OBJECT_ID":"2022-177AS","MEAN_MOTION_DDOT":"0.0000000000000","ELEMENT_SET_NO":"999","BSTAR":"-0.08783800000000","REF_FRAME":"TEME","CENTER_NAME":"EARTH","SEMIMAJOR_AXIS":"6926.245","TIME_SYSTEM":"UTC","OBJECT_TYPE":"PAYLOAD"},{"DECAY_DATE":null,"PERIOD":"95.694","EPHEMERIS_TYPE":"0","MEAN_ANOMALY":"301.9153","NORAD_CAT_ID":"54861","PERIAPSIS":"551.439","TLE_LINE1":"1 54861U 22177AT  23063.91667824 -.00444589  00000-0 -32976-1 0  9994","MEAN_MOTION_DOT":"-0.00444589","BSTAR":"-0.03297600000000","ELEMENT_SET_NO":"999","MEAN_MOTION_DDOT":"0.0000000000000","OBJECT_ID":"2022-177AT","OBJECT_TYPE":"PAYLOAD","TIME_SYSTEM":"UTC","SEMIMAJOR_AXIS":"6930.282","CENTER_NAME":"EARTH","REF_FRAME":"TEME","INCLINATION":"43.0024","TLE_LINE2":"2 54861  43.0024 341.7234 0001022 257.9160 301.9153 15.04791684  1309","REV_AT_EPOCH":"130","CLASSIFICATION_TYPE":"U","MEAN_ELEMENT_THEORY":"SGP4","OBJECT_NAME":"STARLINK-5400","GP_ID":"227511246","COUNTRY_CODE":"US","SITE":"AFETR","ECCENTRICITY":"0.00010220","EPOCH":"2023-03-04T22:00:00.999936","LAUNCH_DATE":"2022-12-28","APOAPSIS":"552.855","RA_OF_ASC_NODE":"341.7234","RCS_SIZE":"LARGE","ARG_OF_PERICENTER":"257.9160","FILE":"3851350","MEAN_MOTION":"15.04791684"},{"OBJECT_NAME":"STARLINK-5403","GP_ID":"227511495","COUNTRY_CODE":"US","SITE":"AFETR","ECCENTRICITY":"0.00011970","EPOCH":"2023-03-04T22:00:00.999936","INCLINATION":"43.0000","TLE_LINE2":"2 54862  43.0000 342.0804 0001197 262.7364 153.1106 15.08468607  1309","REV_AT_EPOCH":"130","CLASSIFICATION_TYPE":"U","MEAN_ELEMENT_THEORY":"SGP4","RA_OF_ASC_NODE":"342.0804","RCS_SIZE":"LARGE","ARG_OF_PERICENTER":"262.7364","FILE":"3851350","MEAN_MOTION":"15.08468607","LAUNCH_DATE":"2022-12-28","APOAPSIS":"541.709","NORAD_CAT_ID":"54862","PERIAPSIS":"540.053","TLE_LINE1":"1 54862U 22177AU  23063.91667824 -.01042661  00000-0 -70955-1 0  9990","MEAN_MOTION_DOT":"-0.01042661","EPHEMERIS_TYPE":"0","DECAY_DATE":null,"PERIOD":"95.461","MEAN_ANOMALY":"153.1106","OBJECT_TYPE":"PAYLOAD","TIME_SYSTEM":"UTC","SEMIMAJOR_AXIS":"6919.016","CENTER_NAME":"EARTH","REF_FRAME":"TEME","BSTAR":"-0.07095500000000","ELEMENT_SET_NO":"999","MEAN_MOTION_DDOT":"0.0000000000000","OBJECT_ID":"2022-177AU"},{"RCS_SIZE":"LARGE","ARG_OF_PERICENTER":"258.1366","FILE":"3851350","MEAN_MOTION":"15.05516483","RA_OF_ASC_NODE":"341.6265","LAUNCH_DATE":"2022-12-28","APOAPSIS":"550.690","GP_ID":"227512247","COUNTRY_CODE":"US","ECCENTRICITY":"0.00011070","SITE":"AFETR","EPOCH":"2023-03-04T22:00:00.999936","OBJECT_NAME":"STARLINK-5405","MEAN_ELEMENT_THEORY":"SGP4","INCLINATION":"43.0016","TLE_LINE2":"2 54863  43.0016 341.6265 0001107 258.1366 342.1256 15.05516483  1304","REV_AT_EPOCH":"130","CLASSIFICATION_TYPE":"U","SEMIMAJOR_AXIS":"6928.058","CENTER_NAME":"EARTH","REF_FRAME":"TEME","OBJECT_TYPE":"PAYLOAD","TIME_SYSTEM":"UTC","MEAN_MOTION_DDOT":"0.0000000000000","OBJECT_ID":"2022-177AV","BSTAR":"-0.08372500000000","ELEMENT_SET_NO":"999","MEAN_MOTION_DOT":"-0.01127851","NORAD_CAT_ID":"54863","TLE_LINE1":"1 54863U 22177AV  23063.91667824 -.01127851  00000-0 -83725-1 0  9995","PERIAPSIS":"549.156","DECAY_DATE":null,"PERIOD":"95.648","EPHEMERIS_TYPE":"0","MEAN_ANOMALY":"342.1256"},{"INCLINATION":"43.0010","TLE_LINE2":"2 54864  43.0010 341.4903 0002119 263.4698  33.3544 15.06141349  1302","REV_AT_EPOCH":"130","CLASSIFICATION_TYPE":"U","MEAN_ELEMENT_THEORY":"SGP4","OBJECT_NAME":"STARLINK-5359","GP_ID":"227511985","COUNTRY_CODE":"US","SITE":"AFETR","ECCENTRICITY":"0.00021190","EPOCH":"2023-03-04T22:00:00.999936","LAUNCH_DATE":"2022-12-28","APOAPSIS":"549.474","RA_OF_ASC_NODE":"341.4903","RCS_SIZE":"LARGE","ARG_OF_PERICENTER":"263.4698","FILE":"3851350","MEAN_MOTION":"15.06141349","PERIOD":"95.609","DECAY_DATE":null,"EPHEMERIS_TYPE":"0","MEAN_ANOMALY":"33.3544","NORAD_CAT_ID":"54864","TLE_LINE1":"1 54864U 22177AW  23063.91667824 -.01199938  00000-0 -88033-1 0  9998","PERIAPSIS":"546.539","MEAN_MOTION_DOT":"-0.01199938","BSTAR":"-0.08803300000000","ELEMENT_SET_NO":"999","MEAN_MOTION_DDOT":"0.0000000000000","OBJECT_ID":"2022-177AW","OBJECT_TYPE":"PAYLOAD","TIME_SYSTEM":"UTC","SEMIMAJOR_AXIS":"6926.141","CENTER_NAME":"EARTH","REF_FRAME":"TEME"}];
